{
    "links": {
        "self": "http://www.neowsapp.com/rest/v1/neo/3455472?api_key=iIulBulltgU6a56xZRHN4H3l9WmuAYTsLGpBGhQ2"
    },
    "id": "3455472",
    "neo_reference_id": "3455472",
    "name": "(2009 FR32)",
    "designation": "2009 FR32",
    "nasa_jpl_url": "http://ssd.jpl.nasa.gov/sbdb.cgi?sstr=3455472",
    "absolute_magnitude_h": 25.1,
    "estimated_diameter": {
        "kilometers": {
            "estimated_diameter_min": 0.0253837029,
            "estimated_diameter_max": 0.0567596853
        },
        "meters": {
            "estimated_diameter_min": 25.3837029364,
            "estimated_diameter_max": 56.7596852866
        },
        "miles": {
            "estimated_diameter_min": 0.0157726969,
            "estimated_diameter_max": 0.0352688224
        },
        "feet": {
            "estimated_diameter_min": 83.279867942,
            "estimated_diameter_max": 186.2194458756
        }
    },
    "is_potentially_hazardous_asteroid": false,
    "close_approach_data": [
        {
            "close_approach_date": "2009-04-10",
            "close_approach_date_full": "2009-Apr-10 09:59",
            "epoch_date_close_approach": 1239357540000,
            "relative_velocity": {
                "kilometers_per_second": "4.9840654255",
                "kilometers_per_hour": "17942.6355319363",
                "miles_per_hour": "11148.8559503857"
            },
            "miss_distance": {
                "astronomical": "0.0649140005",
                "lunar": "25.2515461945",
                "kilometers": "9710996.207978935",
                "miles": "6034133.237161903"
            },
            "orbiting_body": "Earth"
        }
    ],
    "orbital_data": {
        "orbit_id": "6",
        "orbit_determination_date": "2017-04-06 09:00:50",
        "first_observation_date": "2009-03-29",
        "last_observation_date": "2009-03-30",
        "data_arc_in_days": 1,
        "observations_used": 17,
        "orbit_uncertainty": "9",
        "minimum_orbit_intersection": ".0647784",
        "jupiter_tisserand_invariant": "3.979",
        "epoch_osculation": "2454919.5",
        "eccentricity": ".4058081361821356",
        "semi_major_axis": "1.788111973511305",
        "inclination": "3.767860434825475",
        "ascending_node_longitude": ".5914143758522411",
        "orbital_period": "873.3543622730953",
        "perihelion_distance": "1.062481586255722",
        "perihelion_argument": "200.2728070986023",
        "aphelion_distance": "2.513742360766888",
        "perihelion_time": "2454932.411280563400",
        "mean_anomaly": "354.6779208948743",
        "mean_motion": ".4122038150276384",
        "equinox": "J2000",
        "orbit_class": {
            "orbit_class_type": "AMO",
            "orbit_class_description": "Near-Earth asteroid orbits similar to that of 1221 Amor",
            "orbit_class_range": "1.017 AU < q (perihelion) < 1.3 AU"
        }
    },
    "is_sentry_object": false
}